$$SOE
2460728.500000000, A.D. 2025-Feb-22 00:00:00.0000, 6.658774244579695E+09, 3.423530662758916E+08, -7.043036793830484E+06,
2460735.500000000, A.D. 2025-Mar-01 00:00:00.0000, 6.658614865128662E+09, 3.450412503969875E+08, -7.004022739609703E+06,
2460742.500000000, A.D. 2025-Mar-08 00:00:00.0000, 6.658454389709682E+09, 3.477292888011677E+08, -6.965007407482609E+06,
2460749.500000000, A.D. 2025-Mar-15 00:00:00.0000, 6.658292822763412E+09, 3.504171830445884E+08, -6.925991120282680E+06,
2460756.500000000, A.D. 2025-Mar-22 00:00:00.0000, 6.658130167560001E+09, 3.531049368260051E+08, -6.886973952362388E+06,
2460763.500000000, A.D. 2025-Mar-29 00:00:00.0000, 6.657966425338028E+09, 3.557925541546327E+08, -6.847955794458181E+06,
2460770.500000000, A.D. 2025-Apr-05 00:00:00.0000, 6.657801596137995E+09, 3.584800384017355E+08, -6.808936500976145E+06,
2460777.500000000, A.D. 2025-Apr-12 00:00:00.0000, 6.657635679404466E+09, 3.611673923401353E+08, -6.769915934847265E+06,
2460784.500000000, A.D. 2025-Apr-19 00:00:00.0000, 6.657468674169608E+09, 3.638546182905720E+08, -6.730893965094939E+06,
2460791.500000000, A.D. 2025-Apr-26 00:00:00.0000, 6.657300579089832E+09, 3.665417181722249E+08, -6.691870458886638E+06,
2460798.500000000, A.D. 2025-May-03 00:00:00.0000, 6.657131392449191E+09, 3.692286934769456E+08, -6.652845277153268E+06,
2460805.500000000, A.D. 2025-May-10 00:00:00.0000, 6.656961112158127E+09, 3.719155451762247E+08, -6.613818275869429E+06,
2460812.500000000, A.D. 2025-May-17 00:00:00.0000, 6.656789735784303E+09, 3.746022735201812E+08, -6.574789319852248E+06,
2460819.500000000, A.D. 2025-May-24 00:00:00.0000, 6.656617260789441E+09, 3.772888776743922E+08, -6.535758329572126E+06,
2460826.500000000, A.D. 2025-May-31 00:00:00.0000, 6.656443685389935E+09, 3.799753555057902E+08, -6.496725373932287E+06,
2460833.500000000, A.D. 2025-Jun-07 00:00:00.0000, 6.656269009640297E+09, 3.826617047226454E+08, -6.457690673806369E+06,
2460840.500000000, A.D. 2025-Jun-14 00:00:00.0000, 6.656093234374893E+09, 3.853479247019796E+08, -6.418654353946745E+06,
2460847.500000000, A.D. 2025-Jun-21 00:00:00.0000, 6.655916359224731E+09, 3.880340157332368E+08, -6.379616322187096E+06,
2460854.500000000, A.D. 2025-Jun-28 00:00:00.0000, 6.655738382837487E+09, 3.907199774430613E+08, -6.340576418613106E+06,
2460861.500000000, A.D. 2025-Jul-05 00:00:00.0000, 6.655559303784056E+09, 3.934058085578128E+08, -6.301534519308746E+06,
2460868.500000000, A.D. 2025-Jul-12 00:00:00.0000, 6.655379120960642E+09, 3.960915071986344E+08, -6.262490551196843E+06,
2460875.500000000, A.D. 2025-Jul-19 00:00:00.0000, 6.655197833675932E+09, 3.987770711341509E+08, -6.223444482288718E+06,
2460882.500000000, A.D. 2025-Jul-26 00:00:00.0000, 6.655015441633297E+09, 4.014624979343732E+08, -6.184396311134070E+06,
2460889.500000000, A.D. 2025-Aug-02 00:00:00.0000, 6.654831944873411E+09, 4.041477850476263E+08, -6.145346059591681E+06,
2460896.500000000, A.D. 2025-Aug-09 00:00:00.0000, 6.654647343700700E+09, 4.068329297860888E+08, -6.106293772121102E+06,
2460903.500000000, A.D. 2025-Aug-16 00:00:00.0000, 6.654461638670558E+09, 4.095179291569921E+08, -6.067239533644676E+06,
2460910.500000000, A.D. 2025-Aug-23 00:00:00.0000, 6.654274830929968E+09, 4.122027795562375E+08, -6.028183531264842E+06,
2460917.500000000, A.D. 2025-Aug-30 00:00:00.0000, 6.654086923240471E+09, 4.148874770387104E+08, -5.989126131420553E+06,
2460924.500000000, A.D. 2025-Sep-06 00:00:00.0000, 6.653897920265320E+09, 4.175720191657566E+08, -5.950067760416389E+06,
2460931.500000000, A.D. 2025-Sep-13 00:00:00.0000, 6.653707826450102E+09, 4.202564059471008E+08, -5.911008637734860E+06,
2460938.500000000, A.D. 2025-Sep-20 00:00:00.0000, 6.653516644770044E+09, 4.229406382329330E+08, -5.871948796491027E+06,
2460945.500000000, A.D. 2025-Sep-27 00:00:00.0000, 6.653324377402557E+09, 4.256247166678993E+08, -5.832888233616501E+06,
2460952.500000000, A.D. 2025-Oct-04 00:00:00.0000, 6.653131026308307E+09, 4.283086417463936E+08, -5.793826960560888E+06,
2460959.500000000, A.D. 2025-Oct-11 00:00:00.0000, 6.652936593347187E+09, 4.309924140263415E+08, -5.754764997196287E+06,
2460966.500000000, A.D. 2025-Oct-18 00:00:00.0000, 6.652741080212838E+09, 4.336760342273179E+08, -5.715702357327789E+06,
2460973.500000000, A.D. 2025-Oct-25 00:00:00.0000, 6.652544488325249E+09, 4.363595032243378E+08, -5.676639037744194E+06,
2460980.500000000, A.D. 2025-Nov-01 00:00:00.0000, 6.652346818720851E+09, 4.390428219532083E+08, -5.637575013259649E+06,
2460987.500000000, A.D. 2025-Nov-08 00:00:00.0000, 6.652148071974611E+09, 4.417259911964818E+08, -5.598510243638575E+06,
2460994.500000000, A.D. 2025-Nov-15 00:00:00.0000, 6.651948248301922E+09, 4.444090111919241E+08, -5.559444710947692E+06,
2461001.500000000, A.D. 2025-Nov-22 00:00:00.0000, 6.651747348242951E+09, 4.470918812840564E+08, -5.520378506497055E+06,
2461008.500000000, A.D. 2025-Nov-29 00:00:00.0000, 6.651545373776155E+09, 4.497746007542024E+08, -5.481311860778451E+06,
2461015.500000000, A.D. 2025-Dec-06 00:00:00.0000, 6.651342327583493E+09, 4.524571706934263E+08, -5.442244918827921E+06,
2461022.500000000, A.D. 2025-Dec-13 00:00:00.0000, 6.651138210900961E+09, 4.551395935483863E+08, -5.403177576383621E+06,
2461029.500000000, A.D. 2025-Dec-20 00:00:00.0000, 6.650933023447598E+09, 4.578218713636183E+08, -5.364109613736451E+06,
2461036.500000000, A.D. 2025-Dec-27 00:00:00.0000, 6.650726764359141E+09, 4.605040053119795E+08, -5.325040817087024E+06,
2461043.500000000, A.D. 2026-Jan-03 00:00:00.0000, 6.650519432667111E+09, 4.631859958982468E+08, -5.285971003894091E+06,
2461050.500000000, A.D. 2026-Jan-10 00:00:00.0000, 6.650311027433090E+09, 4.658678431576470E+08, -5.246900017728806E+06,
2461057.500000000, A.D. 2026-Jan-17 00:00:00.0000, 6.650101547770749E+09, 4.685495467585710E+08, -5.207827721385539E+06,
2461064.500000000, A.D. 2026-Jan-24 00:00:00.0000, 6.649890992833569E+09, 4.712311060330209E+08, -5.168753993449748E+06,
2461071.500000000, A.D. 2026-Jan-31 00:00:00.0000, 6.649679361791718E+09, 4.739125199283115E+08, -5.129678730974734E+06,
2461078.500000000, A.D. 2026-Feb-07 00:00:00.0000, 6.649466653859589E+09, 4.765937868236064E+08, -5.090601868484735E+06,
2461085.500000000, A.D. 2026-Feb-14 00:00:00.0000, 6.649252868627054E+09, 4.792749041968781E+08, -5.051523437654823E+06,
2461092.500000000, A.D. 2026-Feb-21 00:00:00.0000, 6.649038007082027E+09, 4.819558687201117E+08, -5.012443655954093E+06,
2461099.500000000, A.D. 2026-Feb-28 00:00:00.0000, 6.648822072239440E+09, 4.846366779368486E+08, -4.973362850394756E+06,
2461106.500000000, A.D. 2026-Mar-07 00:00:00.0000, 6.648605067318141E+09, 4.873173315724422E+08, -4.934281186854780E+06,
2461113.500000000, A.D. 2026-Mar-14 00:00:00.0000, 6.648386994241389E+09, 4.899978301444520E+08, -4.895198650113225E+06,
2461120.500000000, A.D. 2026-Mar-21 00:00:00.0000, 6.648167854243837E+09, 4.926781737712252E+08, -4.856115201187402E+06,
2461127.500000000, A.D. 2026-Mar-28 00:00:00.0000, 6.647947648575611E+09, 4.953583622073563E+08, -4.817030843485415E+06,
2461134.500000000, A.D. 2026-Apr-04 00:00:00.0000, 6.647726378699749E+09, 4.980383951403793E+08, -4.777945621160418E+06,
2461141.500000000, A.D. 2026-Apr-11 00:00:00.0000, 6.647504046256949E+09, 5.007182723887261E+08, -4.738859604022145E+06,
2461148.500000000, A.D. 2026-Apr-18 00:00:00.0000, 6.647280652957019E+09, 5.033979939942452E+08, -4.699772873962104E+06,
2461155.500000000, A.D. 2026-Apr-25 00:00:00.0000, 6.647056200443067E+09, 5.060775602239666E+08, -4.660685515691429E+06,
2461162.500000000, A.D. 2026-May-02 00:00:00.0000, 6.646830690159508E+09, 5.087569714514936E+08, -4.621597616836071E+06,
2461169.500000000, A.D. 2026-May-09 00:00:00.0000, 6.646604123348834E+09, 5.114362278517978E+08, -4.582509294063240E+06,
2461176.500000000, A.D. 2026-May-16 00:00:00.0000, 6.646376501555466E+09, 5.141153290477823E+08, -4.543420768472344E+06,
2461183.500000000, A.D. 2026-May-23 00:00:00.0000, 6.646147827688847E+09, 5.167942747310187E+08, -4.504332411382139E+06,
2461190.500000000, A.D. 2026-May-30 00:00:00.0000, 6.645918105567497E+09, 5.194730665762549E+08, -4.465244543757498E+06,
2461197.500000000, A.D. 2026-Jun-06 00:00:00.0000, 6.645687337626832E+09, 5.221517081761554E+08, -4.426157227770388E+06,
2461204.500000000, A.D. 2026-Jun-13 00:00:00.0000, 6.645455524456786E+09, 5.248302031952272E+08, -4.387070370602608E+06,
2461211.500000000, A.D. 2026-Jun-20 00:00:00.0000, 6.645222665668196E+09, 5.275085546690927E+08, -4.347983855610132E+06,
2461218.500000000, A.D. 2026-Jun-27 00:00:00.0000, 6.644988760389602E+09, 5.301867651092670E+08, -4.308897573096842E+06,
2461225.500000000, A.D. 2026-Jul-04 00:00:00.0000, 6.644753807394342E+09, 5.328648366385882E+08, -4.269811414293200E+06,
2461232.500000000, A.D. 2026-Jul-11 00:00:00.0000, 6.644517805111869E+09, 5.355427710254413E+08, -4.230725262882084E+06,
2461239.500000000, A.D. 2026-Jul-18 00:00:00.0000, 6.644280751615979E+09, 5.382205696425712E+08, -4.191638990740478E+06,
2461246.500000000, A.D. 2026-Jul-25 00:00:00.0000, 6.644042644614388E+09, 5.408982333532703E+08, -4.152552460143626E+06,
2461253.500000000, A.D. 2026-Aug-01 00:00:00.0000, 6.643803481487720E+09, 5.435757622768888E+08, -4.113465540971547E+06,
2461260.500000000, A.D. 2026-Aug-08 00:00:00.0000, 6.643563259592750E+09, 5.462531553978789E+08, -4.074378165701747E+06,
2461267.500000000, A.D. 2026-Aug-15 00:00:00.0000, 6.643321977244858E+09, 5.489304104688687E+08, -4.035290423545718E+06,
2461274.500000000, A.D. 2026-Aug-22 00:00:00.0000, 6.643079634618564E+09, 5.516075254292192E+08, -3.996202524178028E+06,
2461281.500000000, A.D. 2026-Aug-29 00:00:00.0000, 6.642836232276905E+09, 5.542844999664924E+08, -3.957114533312649E+06,
2461288.500000000, A.D. 2026-Sep-05 00:00:00.0000, 6.642591769463204E+09, 5.569613343528512E+08, -3.918026310215533E+06,
2461295.500000000, A.D. 2026-Sep-12 00:00:00.0000, 6.642346244610037E+09, 5.596380280521888E+08, -3.878937668336868E+06,
$$EOE